[{"OBJECT_NAME":"STARLINK-2420","OBJECT_ID":"2021-018AW","EPOCH":"2026-03-09T17:41:34.111968","MEAN_MOTION":15.06391641,"ECCENTRICITY":0.00013816,"INCLINATION":53.0557,"RA_OF_ASC_NODE":236.4043,"ARG_OF_PERICENTER":85.1184,"MEAN_ANOMALY":274.9962,"EPHEMERIS_TYPE":0,"CLASSIFICATION_TYPE":"U","NORAD_CAT_ID":47831,"ELEMENT_SET_NO":999,"REV_AT_EPOCH":27686,"BSTAR":6.8977019e-5,"MEAN_MOTION_DOT":7.46e-6,"MEAN_MOTION_DDOT":0},{"OBJECT_NAME":"COSMOS 397 DEB","OBJECT_ID":"1971-015AM","EPOCH":"2026-03-09T10:35:37.503456","MEAN_MOTION":13.78905525,"ECCENTRICITY":0.05800552,"INCLINATION":65.645,"RA_OF_ASC_NODE":106.5344,"ARG_OF_PERICENTER":135.5672,"MEAN_ANOMALY":229.3475,"EPHEMERIS_TYPE":0,"CLASSIFICATION_TYPE":"U","NORAD_CAT_ID":5187,"ELEMENT_SET_NO":999,"REV_AT_EPOCH":65826,"BSTAR":0.00070809772,"MEAN_MOTION_DOT":2.512e-5,"MEAN_MOTION_DDOT":0}]
